[{"OBJECT_NAME":"SAUDISAT 1C (SO-50)","OBJECT_ID":"2002-058C","EPOCH":"2026-03-09T14:49:05.437056","MEAN_MOTION":14.82783142,"ECCENTRICITY":0.0075248,"INCLINATION":64.5524,"RA_OF_ASC_NODE":76.9957,"ARG_OF_PERICENTER":280.7497,"MEAN_ANOMALY":78.5144,"EPHEMERIS_TYPE":0,"CLASSIFICATION_TYPE":"U","NORAD_CAT_ID":27607,"ELEMENT_SET_NO":999,"REV_AT_EPOCH":24969,"BSTAR":0.00027919,"MEAN_MOTION_DOT":2.222e-5,"MEAN_MOTION_DDOT":0},{"OBJECT_NAME":"STARLINK-32900","OBJECT_ID":"2025-037S","EPOCH":"2026-03-09T21:27:27.753408","MEAN_MOTION":14.98334642,"ECCENTRICITY":0.00024557,"INCLINATION":70.0044,"RA_OF_ASC_NODE":353.9042,"ARG_OF_PERICENTER":261.8382,"MEAN_ANOMALY":98.2498,"EPHEMERIS_TYPE":0,"CLASSIFICATION_TYPE":"U","NORAD_CAT_ID":63093,"ELEMENT_SET_NO":999,"REV_AT_EPOCH":5849,"BSTAR":0.00067469364,"MEAN_MOTION_DOT":7.967e-5,"MEAN_MOTION_DDOT":0}]
